{
  "type": "FeatureCollection",
  "features": [
    {
      "type": "Feature",
      "geometry": {
        "type": "MultiPolygon",
        "coordinates": [
          [
            [
              [-110.001, 48.993],
              [-106.019, 48.999],
              [-101.365, 48.999],
              [-99.002, 49],
              [-95.15, 48.999],
              [-95.154, 49.381],
              [-94.554, 48.719],
              [-92.634, 48.543],
              [-91.691, 48.119],
              [-89.333, 48.122],
              [-88.271, 48.989],
              [-86.428, 48.773],
              [-85.859, 47.984],
              [-84.93, 47.972],
              [-84.775, 46.988],
              [-84.106, 46.347],
              [-80.754, 45.926],
              [-79.825, 44.943],
              [-80.11, 44.475],
              [-81.258, 45.002],
              [-81.744, 44.085],
              [-81.73, 43.382],
              [-82.42, 43.003],
              [-82.623, 42.038],
              [-81.359, 42.649],
              [-80.513, 42.572],
              [-79.087, 43.827],
              [-77.035, 43.972],
              [-74.713, 44.999],
              [-71.506, 45.013],
              [-70.408, 45.732],
              [-69.943, 46.749],
              [-68.98, 47.315],
              [-67.79, 47.033],
              [-67.798, 45.751],
              [-67.355, 45.167],
              [-65.908, 45.211],
              [-64.273, 45.836],
              [-64.864, 45.139],
              [-65.724, 44.727],
              [-66.17, 43.86],
              [-65.72, 43.509],
              [-64.838, 43.83],
              [-64.334, 44.299],
              [-61.12, 45.214],
              [-61.469, 45.683],
              [-62.47, 45.615],
              [-64.043, 45.992],
              [-64.514, 46.24],
              [-65.123, 47.203],
              [-64.828, 47.816],
              [-65.63, 47.671],
              [-65.818, 47.907],
              [-66.386, 48.075],
              [-66.844, 47.997],
              [-66.516, 48.107],
              [-65.785, 48.116],
              [-65.432, 48.003],
              [-64.781, 48.203],
              [-64.162, 48.63],
              [-64.964, 49.219],
              [-66.62, 49.122],
              [-68.204, 48.641],
              [-68.053, 49.294],
              [-67.376, 49.34],
              [-66.635, 50.185],
              [-65.26, 50.323],
              [-60.133, 50.213],
              [-58.452, 51.316],
              [-57.102, 51.419],
              [-55.936, 51.926],
              [-55.648, 52.444],
              [-56.162, 52.819],
              [-55.813, 53.329],
              [-57.124, 53.742],
              [-57.847, 54.739],
              [-59.798, 55.113],
              [-60.49, 55.811],
              [-61.404, 55.96],
              [-61.498, 56.788],
              [-62.578, 58.504],
              [-63.794, 59.422],
              [-64.537, 60.304],
              [-65.548, 59.731],
              [-65.641, 59.074],
              [-67.466, 58.285],
              [-68.788, 58.922],
              [-69.45, 58.895],
              [-69.828, 60.526],
              [-69.536, 61.08],
              [-71.373, 61.149],
              [-72.233, 61.882],
              [-73.669, 62.483],
              [-75.592, 62.267],
              [-77.493, 62.589],
              [-78.155, 62.297],
              [-77.784, 61.455],
              [-78.166, 60.868],
              [-77.237, 60.005],
              [-78.573, 58.676],
              [-77.079, 57.962],
              [-76.589, 57.271],
              [-76.657, 56.073],
              [-77.781, 55.273],
              [-79.764, 54.653],
              [-78.979, 54.019],
              [-78.983, 53.029],
              [-78.501, 52.356],
              [-79.519, 51.466],
              [-80.43, 51.357],
              [-82.302, 52.967],
              [-82.126, 53.812],
              [-82.432, 54.228],
              [-82.252, 55.118],
              [-84.613, 55.246],
              [-87.58, 56.046],
              [-88.948, 56.853],
              [-91.032, 57.265],
              [-92.224, 57.022],
              [-93.156, 58.745],
              [-94.809, 59.018],
              [-94.802, 60],
              [-94.352, 60.858],
              [-92.71, 62.277],
              [-92.454, 62.793],
              [-90.644, 63.069],
              [-89.563, 64.075],
              [-87.983, 64.191],
              [-86.939, 65.142],
              [-87.382, 65.329],
              [-85.855, 66.163],
              [-83.692, 66.199],
              [-81.528, 66.996],
              [-82.09, 67.899],
              [-81.816, 68.914],
              [-82.615, 69.647],
              [-85.319, 69.847],
              [-85.902, 68.054],
              [-87.483, 67.363],
              [-88.379, 68.03],
              [-88.023, 68.808],
              [-89.333, 69.249],
              [-89.999, 68.379],
              [-91.511, 70.162],
              [-92.948, 70.817],
              [-92.991, 71.357],
              [-95.226, 71.949],
              [-96.447, 71.3],
              [-96.206, 69.866],
              [-94.236, 69.336],
              [-93.729, 68.612],
              [-96.461, 67.474],
              [-97.12, 67.779],
              [-102.308, 67.723],
              [-105.526, 68.41],
              [-106.271, 68.907],
              [-108.28, 68.622],
              [-107.992, 67.283],
              [-110.343, 67.968],
              [-112.42, 67.682],
              [-115.117, 67.803],
              [-113.907, 68.4],
              [-115.034, 68.875],
              [-118.04, 69.024],
              [-120.682, 69.557],
              [-125.938, 69.413],
              [-127.137, 70.253],
              [-128.311, 69.989],
              [-130.647, 70.142],
              [-131.839, 69.77],
              [-135.838, 69.309],
              [-136.443, 68.91],
              [-139.143, 69.514],
              [-141.004, 69.651],
              [-140.999, 60.309],
              [-139.06, 59.999],
              [-137.61, 59.24],
              [-136.344, 59.601],
              [-135.097, 59.419],
              [-133.394, 58.404],
              [-132.109, 56.859],
              [-130.104, 56.123],
              [-130.002, 54.982],
              [-130.755, 53.893],
              [-127.931, 52.056],
              [-127.771, 51.161],
              [-128.382, 50.715],
              [-126.058, 49.184],
              [-124.7, 48.602],
              [-123.542, 48.32],
              [-123.431, 48.896],
              [-124.826, 49.508],
              [-125.173, 50.173],
              [-122.752, 48.992],
              [-118.836, 48.992],
              [-114.065, 48.992],
              [-110.001, 48.993]
            ],
            [
              [-96.281, 51.242],
              [-97.48, 52.13],
              [-98.218, 52.306],
              [-99.251, 53.208],
              [-98.96, 53.856],
              [-97.955, 53.875],
              [-97.088, 52.24],
              [-96.281, 51.242]
            ],
            [
              [-118.835, 65.776],
              [-120.412, 65.378],
              [-122.731, 65.343],
              [-121.906, 66.249],
              [-119.782, 67.045],
              [-118.832, 66.309],
              [-118.835, 65.776]
            ],
            [
              [-111.668, 62.388],
              [-112.219, 61.611],
              [-113.763, 61.006],
              [-115.945, 60.844],
              [-116.024, 61.239],
              [-115.167, 62.252],
              [-112.438, 62.079],
              [-111.668, 62.388]
            ]
          ],
          [
            [
              [-131.866, 53.81],
              [-133.174, 53.84],
              [-132.296, 52.865],
              [-131.866, 53.81]
            ]
          ],
          [
            [
              [-53.848, 47.707],
              [-53.567, 48.19],
              [-53.898, 48.98],
              [-55.054, 49.294],
              [-56.738, 50.027],
              [-55.745, 51.07],
              [-56.72, 51.319],
              [-57.329, 50.713],
              [-58.668, 48.726],
              [-59.399, 47.88],
              [-59.111, 47.561],
              [-58.042, 47.698],
              [-56.159, 47.642],
              [-55.302, 47.267],
              [-53.894, 47.393],
              [-54.197, 46.885],
              [-52.94, 46.791],
              [-52.814, 47.273],
              [-53.848, 47.707]
            ]
          ],
          [
            [
              [-60.079, 45.792],
              [-60.605, 47.034],
              [-61.541, 46.041],
              [-61.336, 45.566],
              [-60.079, 45.792]
            ]
          ],
          [
            [
              [-64.511, 49.868],
              [-63.586, 49.39],
              [-62.246, 49.068],
              [-61.883, 49.354],
              [-63.373, 49.829],
              [-64.511, 49.868]
            ]
          ],
          [
            [
              [-116.855, 69.648],
              [-115.973, 69.3],
              [-113.695, 69.194],
              [-113.349, 68.592],
              [-110.98, 68.549],
              [-105.886, 69.176],
              [-103.449, 68.789],
              [-101.771, 69.194],
              [-102.581, 69.744],
              [-101.53, 70.113],
              [-103.539, 70.6],
              [-105.368, 72.792],
              [-106.872, 73.316],
              [-110.005, 72.985],
              [-110.005, 72.755],
              [-110.005, 72.459],
              [-113.961, 73.123],
              [-114.584, 73.385],
              [-117.37, 72.918],
              [-118.594, 72.429],
              [-119.051, 71.627],
              [-116.963, 70.129],
              [-117.442, 69.989],
              [-116.855, 69.648]
            ]
          ],
          [
            [
              [-115.325, 73.509],
              [-118.065, 74.281],
              [-121.582, 74.555],
              [-124.757, 74.349],
              [-123.775, 73.765],
              [-125.65, 72.257],
              [-123.101, 71.085],
              [-120.635, 71.491],
              [-119.163, 72.631],
              [-115.325, 73.509]
            ]
          ],
          [
            [
              [-110.005, 74.853],
              [-106.008, 75.056],
              [-105.76, 75.991],
              [-110.005, 76.486],
              [-110.005, 76.227],
              [-110.005, 75.544],
              [-114.206, 76.472],
              [-116.704, 76.058],
              [-117.511, 75.201],
              [-113.695, 74.445],
              [-110.005, 74.853]
            ]
          ],
          [
            [
              [-119.318, 76.2],
              [-115.894, 76.699],
              [-116.405, 77.562],
              [-118.821, 77.362],
              [-122.482, 76.102],
              [-119.318, 76.2]
            ]
          ],
          [
            [
              [-95.216, 68.862],
              [-97.926, 69.896],
              [-99.183, 68.831],
              [-96.296, 68.48],
              [-95.216, 68.862]
            ]
          ],
          [
            [
              [-72.949, 66.734],
              [-74.472, 66.149],
              [-73.655, 65.72],
              [-75.214, 65.255],
              [-77.435, 65.459],
              [-78.198, 64.651],
              [-76.189, 64.302],
              [-73.482, 64.405],
              [-72.665, 63.857],
              [-71.549, 63.712],
              [-71.715, 63.178],
              [-69.94, 62.802],
              [-68.554, 62.249],
              [-66.275, 61.859],
              [-64.939, 62.632],
              [-64.504, 63.645],
              [-65.584, 64.757],
              [-66.538, 64.958],
              [-67.272, 65.645],
              [-66.862, 66.543],
              [-65.393, 65.982],
              [-64.558, 65.093],
              [-62.293, 65.823],
              [-61.3, 66.677],
              [-63.888, 67.241],
              [-64.378, 67.772],
              [-66.692, 68.145],
              [-68.107, 68.631],
              [-67.225, 69.949],
              [-68.363, 70.584],
              [-70.516, 70.938],
              [-71.581, 71.516],
              [-74.263, 71.819],
              [-75.199, 72.497],
              [-77.601, 72.756],
              [-79.818, 72.506],
              [-81.528, 73.717],
              [-84.952, 73.668],
              [-86.716, 73.847],
              [-89.052, 73.252],
              [-90.104, 71.916],
              [-88.692, 70.465],
              [-82.144, 69.826],
              [-81.071, 70.099],
              [-78.889, 69.894],
              [-78.389, 70.216],
              [-75.689, 69.287],
              [-75.606, 68.885],
              [-72.996, 68.236],
              [-72.352, 67.119],
              [-72.949, 66.734]
            ]
          ],
          [
            [
              [-80.182, 63.768],
              [-81.625, 64.124],
              [-81.773, 64.512],
              [-85.938, 65.763],
              [-86.421, 64.596],
              [-85.636, 63.243],
              [-84.592, 63.316],
              [-83.685, 64.014],
              [-82.533, 63.972],
              [-81.021, 63.45],
              [-80.182, 63.768]
            ]
          ],
          [
            [
              [-75.034, 68.173],
              [-76.69, 68.263],
              [-76.981, 67.244],
              [-75.066, 67.553],
              [-75.034, 68.173]
            ]
          ],
          [
            [
              [-80.902, 73.608],
              [-79.948, 72.848],
              [-76.319, 72.817],
              [-78.137, 73.669],
              [-80.902, 73.608]
            ]
          ],
          [
            [
              [-96.321, 72.467],
              [-97.257, 72.963],
              [-97.26, 73.861],
              [-100.886, 73.833],
              [-101.627, 73.492],
              [-100.05, 72.964],
              [-100.637, 72.187],
              [-99.237, 71.35],
              [-96.558, 71.839],
              [-96.321, 72.467]
            ]
          ],
          [
            [
              [-90.291, 73.923],
              [-93.272, 74.178],
              [-95.248, 74.01],
              [-95.669, 72.802],
              [-91.857, 72.848],
              [-90.291, 73.923]
            ]
          ],
          [
            [
              [-93.437, 74.945],
              [-94.395, 75.604],
              [-96.616, 74.992],
              [-94.726, 74.631],
              [-93.437, 74.945]
            ]
          ],
          [
            [
              [-97.426, 75.52],
              [-97.664, 76.486],
              [-101.811, 76.459],
              [-101.832, 75.906],
              [-100.331, 75.015],
              [-98.034, 75.026],
              [-97.426, 75.52]
            ]
          ],
          [
            [
              [-79.559, 74.992],
              [-81.114, 75.779],
              [-83.735, 75.826],
              [-86.395, 75.431],
              [-88.213, 75.474],
              [-91.443, 76.693],
              [-95.77, 77.077],
              [-95.824, 76.399],
              [-93.128, 76.37],
              [-92.004, 75.601],
              [-92.019, 74.777],
              [-89.949, 74.532],
              [-86.604, 74.471],
              [-80.542, 74.564],
              [-79.559, 74.992]
            ]
          ],
          [
            [
              [-96.911, 77.795],
              [-95.118, 78.455],
              [-98.412, 78.494],
              [-96.911, 77.795]
            ]
          ],
          [
            [
              [-105.605, 79.103],
              [-103.496, 78.507],
              [-99.557, 78.598],
              [-103.722, 79.364],
              [-105.605, 79.103]
            ]
          ],
          [
            [
              [-96.623, 80.045],
              [-95.756, 79.407],
              [-92.004, 78.213],
              [-88.771, 78.186],
              [-86.503, 79.069],
              [-87.702, 80.413],
              [-90.73, 80.567],
              [-92.238, 81.256],
              [-95.5, 80.808],
              [-96.623, 80.045]
            ]
          ],
          [
            [
              [-61.087, 82.332],
              [-69.688, 83.116],
              [-81.575, 82.791],
              [-82.713, 82.382],
              [-91.95, 81.632],
              [-86.439, 80.32],
              [-86.489, 79.77],
              [-84.329, 79.192],
              [-87.483, 78.452],
              [-87.681, 77.353],
              [-89.538, 76.856],
              [-88.912, 76.41],
              [-85.251, 76.316],
              [-78.141, 76.527],
              [-79.134, 77.292],
              [-75.581, 78.113],
              [-75.027, 79.374],
              [-71.02, 79.823],
              [-68.28, 80.76],
              [-64.691, 81.39],
              [-61.087, 82.332]
            ]
          ]
        ]
      },
      "properties": { "name": "Canada" }
    },
    {
      "type": "Feature",
      "geometry": {
        "type": "Polygon",
        "coordinates": [
          [
            [-112.211, 27.211],
            [-113.623, 29.253],
            [-114.659, 30.183],
            [-114.782, 31.656],
            [-113.05, 31.156],
            [-113.129, 30.813],
            [-112.154, 28.987],
            [-111.25, 28.052],
            [-110.617, 27.812],
            [-110.523, 27.3],
            [-109.983, 27.115],
            [-109.14, 26.332],
            [-109.439, 25.794],
            [-108.284, 25.107],
            [-107.996, 24.648],
            [-107.034, 23.981],
            [-105.724, 22.51],
            [-105.198, 21.492],
            [-105.328, 20.513],
            [-105.699, 20.407],
            [-105.018, 19.368],
            [-103.982, 18.875],
            [-103.499, 18.334],
            [-101.811, 17.89],
            [-101.058, 17.265],
            [-99.741, 16.731],
            [-98.855, 16.528],
            [-97.772, 15.98],
            [-96.555, 15.659],
            [-95.435, 15.975],
            [-94.852, 16.429],
            [-94.085, 16.149],
            [-92.84, 15.183],
            [-92.21, 15.261],
            [-91.731, 16.074],
            [-90.448, 16.073],
            [-90.381, 16.367],
            [-91.068, 16.918],
            [-90.964, 17.816],
            [-89.16, 17.814],
            [-88.491, 18.484],
            [-87.936, 18.443],
            [-87.432, 19.492],
            [-87.443, 20.191],
            [-86.874, 20.855],
            [-86.827, 21.434],
            [-88.131, 21.617],
            [-89.787, 21.285],
            [-90.334, 21.033],
            [-90.478, 19.922],
            [-90.73, 19.376],
            [-91.432, 18.88],
            [-92.858, 18.465],
            [-94.467, 18.145],
            [-95.208, 18.709],
            [-95.806, 18.752],
            [-96.458, 19.869],
            [-97.149, 20.646],
            [-97.656, 21.637],
            [-97.89, 22.596],
            [-97.653, 24.516],
            [-97.167, 25.724],
            [-99.021, 26.408],
            [-99.579, 27.608],
            [-100.285, 28.264],
            [-100.67, 29.116],
            [-101.404, 29.778],
            [-102.682, 29.744],
            [-103.146, 28.985],
            [-104.543, 29.705],
            [-104.977, 30.631],
            [-106.53, 31.782],
            [-108.208, 31.783],
            [-108.209, 31.334],
            [-111.074, 31.333],
            [-114.818, 32.499],
            [-117.125, 32.532],
            [-116.675, 31.553],
            [-116.067, 30.813],
            [-115.696, 29.755],
            [-114.973, 29.377],
            [-114.044, 28.459],
            [-114.497, 27.775],
            [-114.487, 27.238],
            [-113.061, 26.6],
            [-112.197, 25.996],
            [-112.147, 24.874],
            [-110.307, 23.542],
            [-109.475, 23.56],
            [-110.656, 24.807],
            [-111.308, 25.78],
            [-111.56, 26.696],
            [-112.211, 27.211]
          ]
        ]
      },
      "properties": { "name": "Mexico" }
    }
  ]
}
